STARLINK-37739          
1 69233U 26115Y   26155.16670139 -.00033480  00000+0 -17459-3 0  9998
2 69233  97.2825 171.9321 0000650 102.0965 181.3705 15.80833511  2604
STARLINK-37755          
1 69234U 26115Z   26155.16670139 -.01852277  00000+0 -10204-1 0  9992
2 69234  97.2822 171.9378 0001456  97.4325 198.4879 15.82470093  2601
TJS-24                  
1 69235U 26116A   26146.91903053  .00005573 -37133-6  21296-3 0  9997
2 69235  19.5460 149.2488 7312999 179.4286 182.6145  2.27837712    23
STARLINK-37665          
1 69238U 26117A   26155.16670139 -.02149191  13717-2 -39559-2 0  9990
2 69238  53.1588 309.2851 0000818  68.0721 137.0553 16.00733162  2071
STARLINK-37558          
1 69239U 26117B   26155.16670139 -.02182420  14169-2 -39612-2 0  9995
2 69239  53.1586 309.2774 0000771  63.1504 145.6604 16.00977605  2071
STARLINK-37680          
1 69240U 26117C   26155.16670139 -.02196750  14406-2 -39137-2 0  9994
2 69240  53.1587 309.2695 0000695  65.3328 147.3321 16.01299478  2069
STARLINK-37742          
1 69241U 26117D   26155.16670139 -.02175854  14189-2 -38157-2 0  9996
2 69241  53.1586 309.2631 0000642  67.5045 148.1010 16.01568790  2072
STARLINK-37718          
1 69242U 26117E   26155.16670139 -.02179421  14262-2 -37872-2 0  9996
2 69242  53.1587 309.2568 0000610  59.4758 159.1696 16.01725348  2064
STARLINK-37735          
1 69243U 26117F   26155.16670139 -.02235854  15013-2 -38528-2 0  9994
2 69243  53.1585 309.2496 0000589  66.9897 155.1874 16.01872333  2077
STARLINK-37757          
1 69244U 26117G   26155.16670139 -.02189278  14500-2 -36659-2 0  9996
2 69244  53.1586 309.2401 0000683  72.2376 154.3427 16.02356596  2076
STARLINK-37767          
1 69245U 26117H   26155.16670139 -.02134989  13955-2 -34057-2 0  9999
2 69245  53.1584 309.2217 0000588  64.0865 171.5662 16.03170327  2075
STARLINK-35759          
1 69246U 26117J   26155.16670139 -.02145607  14113-2 -33959-2 0  9996
2 69246  53.1585 309.2153 0000634  69.7088 168.8906 16.03302651  2120
STARLINK-37238          
1 69247U 26117K   26155.16670139 -.02080390  13413-2 -31593-2 0  9998
2 69247  53.1585 309.2028 0000637  64.3325 180.2173 16.03986492  2079
STARLINK-37412          
1 69248U 26117L   26155.16670139 -.02081040  13524-2 -30475-2 0  9993
2 69248  53.1584 309.1905 0000625  64.4788 186.1054 16.04586310  2140
STARLINK-37398          
1 69249U 26117M   26155.16670139 -.02071882  13422-2 -30211-2 0  9992
2 69249  53.1583 309.1843 0000491  63.6381 189.7569 16.04656454  2149
STARLINK-37499          
1 69250U 26117N   26155.16670139 -.02073350  13463-2 -29990-2 0  9993
2 69250  53.1584 309.1778 0000621  64.0243 192.6434 16.04788205  2140
STARLINK-37489          
1 69251U 26117P   26155.16670139 -.02026107  12958-2 -28458-2 0  9998
2 69251  53.1585 309.1680 0000502  62.8235 198.3756 16.05264925  2148
STARLINK-37434          
1 69252U 26117Q   26155.16670139 -.01995445  12642-2 -27420-2 0  9996
2 69252  53.1583 309.1599 0000396  52.3902 212.6244 16.05618431  2071
STARLINK-37368          
1 69253U 26117R   26155.16670139 -.01852497  11103-2 -24039-2 0  9990
2 69253  53.1583 309.1415 0000442  85.6588 188.3108 16.06527746  2145
STARLINK-37517          
1 69254U 26117S   26154.93231653 -.00609840  15022-3 -71396-3 0  9994
2 69254  53.1597 310.3574 0001531   1.9667 358.1373 16.07942130   878
STARLINK-37378          
1 69255U 26117T   26155.16670139 -.01793577  10485-2 -22836-2 0  9990
2 69255  53.1585 309.1279 0000494  35.0942 245.4520 16.06824944  2061
STARLINK-37396          
1 69256U 26117U   26155.16670139 -.01984154  12787-2 -24523-2 0  9996
2 69256  53.1584 309.1168 0000190  40.0169 245.6867 16.07315327  2144
STARLINK-37508          
1 69257U 26117V   26155.16670139 -.01955781  12486-2 -23724-2 0  9999
2 69257  53.1584 309.1083 0000186  44.7166 244.9502 16.07608523  2066
STARLINK-37276          
1 69258U 26117W   26155.16670139 -.01859232  11414-2 -21810-2 0  9998
2 69258  53.1583 309.0961 0000120  79.2020 216.1933 16.08125800  2062
STARLINK-37518          
1 69259U 26117X   26155.16670139 -.01774121  10501-2 -20259-2 0  9994
2 69259  53.1582 309.0887 0000281  95.8766 203.4221 16.08536666  2074
STARLINK-37478          
1 69260U 26117Y   26155.16670139 -.01819331  11052-2 -20424-2 0  9995
2 69260  53.1583 309.0804 0000077  25.8948 277.4365 16.08805706  2078
STARLINK-37506          
1 69261U 26117Z   26155.16670139 -.01838656  11304-2 -20403-2 0  9994
2 69261  53.1581 309.0737 0000115  71.2686 235.2500 16.08987110  2072
STARLINK-37503          
1 69262U 26117AA  26155.16670139 -.01771150  10571-2 -19273-2 0  9998
2 69262  53.1584 309.0647 0000292  76.0399 234.5694 16.09282250  2076
