OBJECT_NAME,OBJECT_ID,EPOCH,MEAN_MOTION,ECCENTRICITY,INCLINATION,RA_OF_ASC_NODE,ARG_OF_PERICENTER,MEAN_ANOMALY,EPHEMERIS_TYPE,CLASSIFICATION_TYPE,NORAD_CAT_ID,ELEMENT_SET_NO,REV_AT_EPOCH,BSTAR,MEAN_MOTION_DOT,MEAN_MOTION_DDOT
STARLINK-37739,2026-115Y,2026-06-04T04:00:03.000096,15.80833511,.000065,97.2825,171.9321,102.0965,181.3705,0,U,69233,999,260,-.17459E-3,-.3348E-3,0
STARLINK-37755,2026-115Z,2026-06-04T04:00:03.000096,15.82470093,.0001456,97.2822,171.9378,97.4325,198.4879,0,U,69234,999,260,-.10204E-1,-.1852277E-1,0
TJS-24,2026-116A,2026-05-26T22:03:24.237792,2.27837712,.7312999,19.5460,149.2488,179.4286,182.6145,0,U,69235,999,2,.21296435E-3,.5573E-4,-.371334E-6
STARLINK-37665,2026-117A,2026-06-04T04:00:03.000096,16.00733162,.0000818,53.1588,309.2851,68.0721,137.0553,0,U,69238,999,207,-.39559E-2,-.2149191E-1,.13717E-2
STARLINK-37558,2026-117B,2026-06-04T04:00:03.000096,16.00977605,.0000771,53.1586,309.2774,63.1504,145.6604,0,U,69239,999,207,-.39612E-2,-.218242E-1,.14169E-2
STARLINK-37680,2026-117C,2026-06-04T04:00:03.000096,16.01299478,.0000695,53.1587,309.2695,65.3328,147.3321,0,U,69240,999,206,-.39137E-2,-.219675E-1,.14406E-2
STARLINK-37742,2026-117D,2026-06-04T04:00:03.000096,16.01568790,.0000642,53.1586,309.2631,67.5045,148.1010,0,U,69241,999,207,-.38157E-2,-.2175854E-1,.14189E-2
STARLINK-37718,2026-117E,2026-06-04T04:00:03.000096,16.01725348,.000061,53.1587,309.2568,59.4758,159.1696,0,U,69242,999,206,-.37872E-2,-.2179421E-1,.14262E-2
STARLINK-37735,2026-117F,2026-06-04T04:00:03.000096,16.01872333,.0000589,53.1585,309.2496,66.9897,155.1874,0,U,69243,999,207,-.38528E-2,-.2235854E-1,.15013E-2
STARLINK-37757,2026-117G,2026-06-04T04:00:03.000096,16.02356596,.0000683,53.1586,309.2401,72.2376,154.3427,0,U,69244,999,207,-.36659E-2,-.2189278E-1,.145E-2
STARLINK-37767,2026-117H,2026-06-04T04:00:03.000096,16.03170327,.0000588,53.1584,309.2217,64.0865,171.5662,0,U,69245,999,207,-.34057E-2,-.2134989E-1,.13955E-2
STARLINK-35759,2026-117J,2026-06-04T04:00:03.000096,16.03302651,.0000634,53.1585,309.2153,69.7088,168.8906,0,U,69246,999,212,-.33959E-2,-.2145607E-1,.14113E-2
STARLINK-37238,2026-117K,2026-06-04T04:00:03.000096,16.03986492,.0000637,53.1585,309.2028,64.3325,180.2173,0,U,69247,999,207,-.31593E-2,-.208039E-1,.13413E-2
STARLINK-37412,2026-117L,2026-06-04T04:00:03.000096,16.04586310,.0000625,53.1584,309.1905,64.4788,186.1054,0,U,69248,999,214,-.30475E-2,-.208104E-1,.13524E-2
STARLINK-37398,2026-117M,2026-06-04T04:00:03.000096,16.04656454,.0000491,53.1583,309.1843,63.6381,189.7569,0,U,69249,999,214,-.30211E-2,-.2071882E-1,.13422E-2
STARLINK-37499,2026-117N,2026-06-04T04:00:03.000096,16.04788205,.0000621,53.1584,309.1778,64.0243,192.6434,0,U,69250,999,214,-.2999E-2,-.207335E-1,.13463E-2
STARLINK-37489,2026-117P,2026-06-04T04:00:03.000096,16.05264925,.0000502,53.1585,309.1680,62.8235,198.3756,0,U,69251,999,214,-.28458E-2,-.2026107E-1,.12958E-2
STARLINK-37434,2026-117Q,2026-06-04T04:00:03.000096,16.05618431,.0000396,53.1583,309.1599,52.3902,212.6244,0,U,69252,999,207,-.2742E-2,-.1995445E-1,.12642E-2
STARLINK-37368,2026-117R,2026-06-04T04:00:03.000096,16.06527746,.0000442,53.1583,309.1415,85.6588,188.3108,0,U,69253,999,214,-.24039E-2,-.1852497E-1,.11103E-2
STARLINK-37517,2026-117S,2026-06-03T22:22:32.148192,16.07942130,.0001531,53.1597,310.3574,1.9667,358.1373,0,U,69254,999,87,-.71396E-3,-.60984E-2,.15022E-3
STARLINK-37378,2026-117T,2026-06-04T04:00:03.000096,16.06824944,.0000494,53.1585,309.1279,35.0942,245.4520,0,U,69255,999,206,-.22836E-2,-.1793577E-1,.10485E-2
STARLINK-37396,2026-117U,2026-06-04T04:00:03.000096,16.07315327,.000019,53.1584,309.1168,40.0169,245.6867,0,U,69256,999,214,-.24523E-2,-.1984154E-1,.12787E-2
STARLINK-37508,2026-117V,2026-06-04T04:00:03.000096,16.07608523,.0000186,53.1584,309.1083,44.7166,244.9502,0,U,69257,999,206,-.23724E-2,-.1955781E-1,.12486E-2
STARLINK-37276,2026-117W,2026-06-04T04:00:03.000096,16.08125800,.000012,53.1583,309.0961,79.2020,216.1933,0,U,69258,999,206,-.2181E-2,-.1859232E-1,.11414E-2
STARLINK-37518,2026-117X,2026-06-04T04:00:03.000096,16.08536666,.0000281,53.1582,309.0887,95.8766,203.4221,0,U,69259,999,207,-.20259E-2,-.1774121E-1,.10501E-2
STARLINK-37478,2026-117Y,2026-06-04T04:00:03.000096,16.08805706,.0000077,53.1583,309.0804,25.8948,277.4365,0,U,69260,999,207,-.20424E-2,-.1819331E-1,.11052E-2
STARLINK-37506,2026-117Z,2026-06-04T04:00:03.000096,16.08987110,.0000115,53.1581,309.0737,71.2686,235.2500,0,U,69261,999,207,-.20403E-2,-.1838656E-1,.11304E-2
STARLINK-37503,2026-117AA,2026-06-04T04:00:03.000096,16.09282250,.0000292,53.1584,309.0647,76.0399,234.5694,0,U,69262,999,207,-.19273E-2,-.177115E-1,.10571E-2
